*******************************************************************************
Ephemeris / WWW_USER Mon Mar 10 06:45:05 2025 Pasadena, USA      / Horizons    
*******************************************************************************
Target body name: (2018 TG6)                      {source: JPL#30}
Center body name: Earth (399)                     {source: DE441}
Center-site name: Mauna Kea
*******************************************************************************
Start time      : A.D. 2018-Sep-14 04:35:00.0000 UT      
Stop  time      : A.D. 2018-Sep-14 16:00:00.0000 UT      
Step-size       : 1 minutes
*******************************************************************************
Target pole/equ : undefined
Target radii    : undefined                                                    
Center geodetic : 204.5278, 19.8260847, 4.21024   {E-lon(deg),Lat(deg),Alt(km)}
Center cylindric: 204.5278, 6006.35451, 2151.0229 {E-lon(deg),Dxy(km),Dz(km)}
Center pole/equ : ITRF93                          {East-longitude positive}
Center radii    : 6378.137, 6378.137, 6356.752 km {Equator_a, b, pole_c}       
Target primary  : Sun
Vis. interferer : MOON (R_eq= 1737.400) km        {source: DE441}
Rel. light bend : Sun                             {source: DE441}
Rel. lght bnd GM: 1.3271E+11 km^3/s^2                                          
Small-body perts: Yes                             {source: SB441-N16}
Atmos refraction: NO (AIRLESS)
RA format       : HMS
Time format     : CAL 
Calendar mode   : Mixed Julian/Gregorian
RTS-only print  : NO       
EOP file        : eop.250307.p250603                                           
EOP coverage    : DATA-BASED 1962-JAN-20 TO 2025-MAR-07. PREDICTS-> 2025-JUN-02
Units conversion: 1 au= 149597870.700 km, c= 299792.458 km/s, 1 day= 86400.0 s 
Table cut-offs 1: Elevation (-90.0deg=NO ),Airmass (>38.000=NO), Daylight (YES)
Table cut-offs 2: Solar elongation (  0.0,180.0=NO ),Local Hour Angle( 0.0=NO )
Table cut-offs 3: RA/DEC angular rate (     0.0=NO )                           
*******************************************************************************
Initial IAU76/J2000 heliocentric ecliptic osculating elements (au, days, deg.):
  EPOCH=  2458431.5 ! 2018-Nov-09.00 (TDB)         Residual RMS= .2345         
   EC= .08078462401503236  QR= .9719826736009184   TP= 2458484.4320189627      
   OM= 45.37159736002829   W=  55.46172815883946   IN= 1.097814612439332       
  Equivalent ICRF heliocentric cartesian coordinates (au, au/d):
   X= 7.039692724255667E-01  Y= 6.572194580492579E-01  Z= 2.849862807208282E-01
  VX=-1.330010453008250E-02 VY= 1.042346427712734E-02 VZ= 4.885657766154543E-03
Asteroid physical parameters (km, seconds, rotational period in hours):        
   GM= n.a.                RAD= n.a.               ROTPER= n.a.                
   H= 27.25                G= .150                 B-V= n.a.                   
                           ALBEDO= n.a.            STYP= n.a.                  
*******************************************************************************
 Date__(UT)__HR:MN     R.A._________(ICRF)_________DEC
******************************************************
$$SOE
 2018-Sep-14 10:44     01 39 10.823872 -02 02 55.62453
 2018-Sep-14 10:45     01 39 10.820578 -02 02 55.76910
 2018-Sep-14 10:46     01 39 10.817223 -02 02 55.91362
 2018-Sep-14 10:47     01 39 10.813810 -02 02 56.05809
 2018-Sep-14 10:48     01 39 10.810337 -02 02 56.20250
 2018-Sep-14 10:49     01 39 10.806806 -02 02 56.34685
 2018-Sep-14 10:50     01 39 10.803218 -02 02 56.49115
 2018-Sep-14 10:51     01 39 10.799573 -02 02 56.63540
 2018-Sep-14 10:52     01 39 10.795870 -02 02 56.77959
 2018-Sep-14 10:53     01 39 10.792112 -02 02 56.92373
 2018-Sep-14 10:54     01 39 10.788298 -02 02 57.06782
 2018-Sep-14 10:55     01 39 10.784429 -02 02 57.21184
 2018-Sep-14 10:56     01 39 10.780505 -02 02 57.35582
 2018-Sep-14 10:57     01 39 10.776527 -02 02 57.49974
 2018-Sep-14 10:58     01 39 10.772496 -02 02 57.64360
 2018-Sep-14 10:59     01 39 10.768412 -02 02 57.78741
 2018-Sep-14 11:00     01 39 10.764275 -02 02 57.93116
 2018-Sep-14 11:01     01 39 10.760087 -02 02 58.07485
 2018-Sep-14 11:02     01 39 10.755846 -02 02 58.21850
 2018-Sep-14 11:03     01 39 10.751556 -02 02 58.36208
 2018-Sep-14 11:04     01 39 10.747214 -02 02 58.50561
 2018-Sep-14 11:05     01 39 10.742823 -02 02 58.64908
 2018-Sep-14 11:06     01 39 10.738383 -02 02 58.79250
 2018-Sep-14 11:07     01 39 10.733894 -02 02 58.93586
 2018-Sep-14 11:08     01 39 10.729356 -02 02 59.07916
 2018-Sep-14 11:09     01 39 10.724772 -02 02 59.22241
 2018-Sep-14 11:10     01 39 10.720139 -02 02 59.36560
 2018-Sep-14 11:11     01 39 10.715461 -02 02 59.50873
 2018-Sep-14 11:12     01 39 10.710736 -02 02 59.65181
 2018-Sep-14 11:13     01 39 10.705966 -02 02 59.79483
 2018-Sep-14 11:14     01 39 10.701151 -02 02 59.93779
 2018-Sep-14 11:15     01 39 10.696291 -02 03 00.08069
 2018-Sep-14 11:16     01 39 10.691388 -02 03 00.22354
 2018-Sep-14 11:17     01 39 10.686441 -02 03 00.36633
 2018-Sep-14 11:18     01 39 10.681451 -02 03 00.50906
 2018-Sep-14 11:19     01 39 10.676420 -02 03 00.65174
 2018-Sep-14 11:20     01 39 10.671346 -02 03 00.79435
 2018-Sep-14 11:21     01 39 10.666231 -02 03 00.93691
 2018-Sep-14 11:22     01 39 10.661076 -02 03 01.07941
 2018-Sep-14 11:23     01 39 10.655881 -02 03 01.22186
 2018-Sep-14 11:24     01 39 10.650646 -02 03 01.36424
 2018-Sep-14 11:25     01 39 10.645372 -02 03 01.50657
 2018-Sep-14 11:26     01 39 10.640060 -02 03 01.64883
 2018-Sep-14 11:27     01 39 10.634710 -02 03 01.79104
 2018-Sep-14 11:28     01 39 10.629323 -02 03 01.93319
 2018-Sep-14 11:29     01 39 10.623899 -02 03 02.07529
 2018-Sep-14 11:30     01 39 10.618439 -02 03 02.21732
 2018-Sep-14 11:31     01 39 10.612943 -02 03 02.35929
 2018-Sep-14 11:32     01 39 10.607412 -02 03 02.50121
 2018-Sep-14 11:33     01 39 10.601847 -02 03 02.64306
 2018-Sep-14 11:34     01 39 10.596247 -02 03 02.78486
 2018-Sep-14 11:35     01 39 10.590614 -02 03 02.92660
 2018-Sep-14 11:36     01 39 10.584949 -02 03 03.06828
 2018-Sep-14 11:37     01 39 10.579251 -02 03 03.20990
 2018-Sep-14 11:38     01 39 10.573521 -02 03 03.35146
 2018-Sep-14 11:39     01 39 10.567761 -02 03 03.49296
 2018-Sep-14 11:40     01 39 10.561969 -02 03 03.63440
 2018-Sep-14 11:41     01 39 10.556148 -02 03 03.77578
 2018-Sep-14 11:42     01 39 10.550297 -02 03 03.91710
 2018-Sep-14 11:43     01 39 10.544417 -02 03 04.05836
 2018-Sep-14 11:44     01 39 10.538509 -02 03 04.19957
 2018-Sep-14 11:45     01 39 10.532573 -02 03 04.34071
 2018-Sep-14 11:46     01 39 10.526610 -02 03 04.48179
 2018-Sep-14 11:47     01 39 10.520620 -02 03 04.62281
 2018-Sep-14 11:48     01 39 10.514604 -02 03 04.76377
 2018-Sep-14 11:49     01 39 10.508562 -02 03 04.90467
 2018-Sep-14 11:50     01 39 10.502496 -02 03 05.04551
 2018-Sep-14 11:51     01 39 10.496405 -02 03 05.18630
 2018-Sep-14 11:52     01 39 10.490290 -02 03 05.32702
 2018-Sep-14 11:53     01 39 10.484152 -02 03 05.46768
 2018-Sep-14 11:54     01 39 10.477992 -02 03 05.60827
 2018-Sep-14 11:55     01 39 10.471809 -02 03 05.74881
 2018-Sep-14 11:56     01 39 10.465604 -02 03 05.88929
 2018-Sep-14 11:57     01 39 10.459379 -02 03 06.02971
 2018-Sep-14 11:58     01 39 10.453133 -02 03 06.17006
 2018-Sep-14 11:59     01 39 10.446868 -02 03 06.31036
 2018-Sep-14 12:00     01 39 10.440583 -02 03 06.45059
 2018-Sep-14 12:01     01 39 10.434279 -02 03 06.59077
 2018-Sep-14 12:02     01 39 10.427957 -02 03 06.73088
 2018-Sep-14 12:03     01 39 10.421618 -02 03 06.87093
 2018-Sep-14 12:04     01 39 10.415261 -02 03 07.01092
 2018-Sep-14 12:05     01 39 10.408889 -02 03 07.15085
 2018-Sep-14 12:06     01 39 10.402500 -02 03 07.29072
 2018-Sep-14 12:07     01 39 10.396096 -02 03 07.43053
 2018-Sep-14 12:08     01 39 10.389677 -02 03 07.57028
 2018-Sep-14 12:09     01 39 10.383245 -02 03 07.70996
 2018-Sep-14 12:10     01 39 10.376798 -02 03 07.84958
 2018-Sep-14 12:11     01 39 10.370339 -02 03 07.98915
 2018-Sep-14 12:12     01 39 10.363867 -02 03 08.12865
 2018-Sep-14 12:13     01 39 10.357383 -02 03 08.26808
 2018-Sep-14 12:14     01 39 10.350888 -02 03 08.40746
 2018-Sep-14 12:15     01 39 10.344383 -02 03 08.54678
 2018-Sep-14 12:16     01 39 10.337867 -02 03 08.68603
 2018-Sep-14 12:17     01 39 10.331342 -02 03 08.82523
 2018-Sep-14 12:18     01 39 10.324808 -02 03 08.96436
 2018-Sep-14 12:19     01 39 10.318265 -02 03 09.10343
 2018-Sep-14 12:20     01 39 10.311715 -02 03 09.24244
 2018-Sep-14 12:21     01 39 10.305157 -02 03 09.38138
 2018-Sep-14 12:22     01 39 10.298592 -02 03 09.52027
 2018-Sep-14 12:23     01 39 10.292022 -02 03 09.65909
 2018-Sep-14 12:24     01 39 10.285446 -02 03 09.79785
 2018-Sep-14 12:25     01 39 10.278865 -02 03 09.93655
 2018-Sep-14 12:26     01 39 10.272280 -02 03 10.07519
 2018-Sep-14 12:27     01 39 10.265691 -02 03 10.21376
 2018-Sep-14 12:28     01 39 10.259098 -02 03 10.35228
 2018-Sep-14 12:29  t  01 39 10.252503 -02 03 10.49073
 2018-Sep-14 12:30     01 39 10.245906 -02 03 10.62912
 2018-Sep-14 12:31     01 39 10.239308 -02 03 10.76745
 2018-Sep-14 12:32     01 39 10.232708 -02 03 10.90572
 2018-Sep-14 12:33     01 39 10.226108 -02 03 11.04392
 2018-Sep-14 12:34     01 39 10.219509 -02 03 11.18207
 2018-Sep-14 12:35     01 39 10.212910 -02 03 11.32015
 2018-Sep-14 12:36     01 39 10.206313 -02 03 11.45817
 2018-Sep-14 12:37     01 39 10.199717 -02 03 11.59612
 2018-Sep-14 12:38     01 39 10.193125 -02 03 11.73402
 2018-Sep-14 12:39     01 39 10.186535 -02 03 11.87185
 2018-Sep-14 12:40     01 39 10.179949 -02 03 12.00962
 2018-Sep-14 12:41     01 39 10.173367 -02 03 12.14733
 2018-Sep-14 12:42     01 39 10.166790 -02 03 12.28498
 2018-Sep-14 12:43     01 39 10.160219 -02 03 12.42257
 2018-Sep-14 12:44     01 39 10.153653 -02 03 12.56009
 2018-Sep-14 12:45     01 39 10.147094 -02 03 12.69755
 2018-Sep-14 12:46     01 39 10.140542 -02 03 12.83495
